     2              NAVIGATION DATA                         RINEX VERSION / TYPE
CCRINEXN V1.6.0 UX  CDDIS               28-OCT-06 02:51     PGM / RUN BY / DATE 
IGS BROADCAST EPHEMERIS FILE                                COMMENT             
    0.1211E-07  0.0000E+00 -0.1192E-06  0.0000E+00          ION ALPHA           
    0.9421E+05  0.0000E+00 -0.1966E+06  0.0000E+00          ION BETA            
   -0.651925802231E-08-0.142108547152E-13   589824     1398 DELTA-UTC: A0,A1,T,W
    14                                                      LEAP SECONDS        
                                                            END OF HEADER       
 4 06 10 27 16  0  0.0 0.329324975610E-03 0.466116034659E-11 0.000000000000E+00
    0.580000000000E+02 0.790312500000E+02 0.455697568569E-08-0.308551753484E+01
    0.407919287682E-05 0.757317862008E-02 0.909529626370E-05 0.515368780899E+04
    0.489600000000E+06-0.614672899246E-07-0.231248284469E+01-0.372529029846E-08
    0.948201869168E+00 0.199937500000E+03 0.182980481117E+00-0.789961518421E-08
   -0.215723272579E-09 0.100000000000E+01 0.139800000000E+04 0.000000000000E+00
    0.200000000000E+01 0.000000000000E+00-0.558793544769E-08 0.314000000000E+03
    0.482418000000E+06 0.400000000000E+01 0.000000000000E+00 0.000000000000E+00
 5 06 10 27 16  0  0.0 0.364576466382E-03-0.454747350886E-12 0.000000000000E+00
    0.160000000000E+02-0.180000000000E+02 0.513664253321E-08 0.285396970663E+01
   -0.100024044514E-05 0.760522438213E-02 0.752136111260E-05 0.515376222420E+04
    0.489600000000E+06-0.130385160446E-07 0.177668280176E+01-0.117346644402E-06
    0.938290907857E+00 0.218218750000E+03 0.112931327787E+01-0.808212236712E-08
    0.338228374284E-09 0.100000000000E+01 0.139800000000E+04 0.000000000000E+00
    0.200000000000E+01 0.000000000000E+00-0.419095158577E-08 0.160000000000E+02
    0.486606000000E+06 0.400000000000E+01 0.000000000000E+00 0.000000000000E+00
 6 06 10 27 16  0  0.0 0.569427385926E-03-0.105728759081E-10 0.000000000000E+00
    0.227000000000E+03 0.812500000000E+00 0.521414555976E-08-0.220651026594E+01
   -0.242143869400E-07 0.583545234986E-02 0.730156898499E-05 0.515364580536E+04
    0.489600000000E+06 0.949949026108E-07 0.287331202912E+01 0.111758708954E-07
    0.933866958736E+00 0.221218750000E+03-0.177592694564E+01-0.809283751124E-08
   -0.292512181144E-09 0.100000000000E+01 0.139800000000E+04 0.000000000000E+00
    0.200000000000E+01 0.000000000000E+00-0.465661287308E-08 0.227000000000E+03
    0.485082000000E+06 0.400000000000E+01 0.000000000000E+00 0.000000000000E+00
 7 06 10 27 16  0  0.0 0.506762415171E-03-0.659383658785E-11 0.000000000000E+00
    0.180000000000E+02-0.312500000000E+00 0.526379068658E-08 0.307333283311E+01
    0.558793544769E-08 0.109438629588E-01 0.696443021297E-05 0.515212117195E+04
    0.489600000000E+06 0.193715095520E-06 0.284746012641E+01-0.782310962677E-07
    0.935402556048E+00 0.226531250000E+03-0.172875661070E+01-0.805640701026E-08
   -0.295012288446E-09 0.100000000000E+01 0.139800000000E+04 0.000000000000E+00
    0.200000000000E+01 0.000000000000E+00-0.232830643654E-08 0.180000000000E+02
    0.484608000000E+06 0.400000000000E+01 0.000000000000E+00 0.000000000000E+00
 8 06 10 27 16  0  0.0-0.844071619213E-04-0.125055521494E-11 0.000000000000E+00
    0.126000000000E+03-0.693125000000E+02 0.407874134467E-08-0.205124546126E+01
   -0.359304249287E-05 0.994775781874E-02 0.889785587788E-05 0.515359956741E+04
    0.489600000000E+06-0.210478901863E-06 0.856359304540E+00-0.428408384323E-07
    0.975107342072E+00 0.221093750000E+03 0.269863831723E+01-0.772103625479E-08
    0.290726387409E-09 0.100000000000E+01 0.139800000000E+04 0.000000000000E+00
    0.280000000000E+01 0.000000000000E+00-0.372529029846E-08 0.382000000000E+03
    0.482592000000E+06 0.400000000000E+01 0.000000000000E+00 0.000000000000E+00
 9 06 10 27 16  0  0.0 0.420822761953E-04 0.159161572810E-11 0.000000000000E+00
    0.146000000000E+03-0.920312500000E+02 0.424410535545E-08-0.241065427967E+01
   -0.477023422718E-05 0.184478281299E-01 0.840239226818E-05 0.515373500824E+04
    0.489600000000E+06 0.232830643654E-06 0.774803330309E+00 0.558793544769E-08
    0.962834996914E+00 0.212593750000E+03 0.129214311721E+01-0.757745848870E-08
    0.348585948575E-09 0.100000000000E+01 0.139800000000E+04 0.000000000000E+00
    0.400000000000E+01 0.000000000000E+00-0.558793544769E-08 0.402000000000E+03
    0.482418000000E+06 0.400000000000E+01 0.000000000000E+00 0.000000000000E+00
10 06 10 27 16  0  0.0 0.918181613088E-04 0.568434188608E-12 0.000000000000E+00
    0.227000000000E+03 0.749375000000E+02 0.422839052661E-08 0.115922040705E+01
    0.401958823204E-05 0.714642705862E-02 0.363215804100E-05 0.515371087647E+04
    0.489600000000E+06-0.558793544769E-07-0.125778529969E+01 0.838190317154E-07
    0.971709531968E+00 0.315000000000E+03 0.432551208443E+00-0.812533862415E-08
   -0.392873494154E-11 0.100000000000E+01 0.139800000000E+04 0.000000000000E+00
    0.200000000000E+01 0.000000000000E+00-0.232830643654E-08 0.227000000000E+03
    0.482418000000E+06 0.400000000000E+01 0.000000000000E+00 0.000000000000E+00
11 06 10 27 16  0  0.0 0.357152428478E-03 0.181898940355E-11 0.000000000000E+00
    0.206000000000E+03 0.494687500000E+02 0.575988277938E-08-0.159505262037E+01
    0.253692269325E-05 0.606718345080E-02 0.880286097527E-05 0.515369919968E+04
    0.489600000000E+06-0.335276126862E-07-0.248435018524E+01-0.162050127983E-06
    0.896019358917E+00 0.175437500000E+03 0.398939865355E+00-0.843427989304E-08
   -0.322870591713E-09 0.100000000000E+01 0.139800000000E+04 0.000000000000E+00
    0.200000000000E+01 0.000000000000E+00-0.116415321827E-07 0.206000000000E+03
    0.482418000000E+06 0.400000000000E+01 0.000000000000E+00 0.000000000000E+00
13 06 10 27 16  0  0.0 0.107176601887E-03 0.352429196937E-11 0.000000000000E+00
    0.180000000000E+03-0.532187500000E+02 0.381623044277E-08 0.925606531822E+00
   -0.290386378765E-05 0.297023029998E-02 0.343285501003E-05 0.515370377922E+04
    0.489600000000E+06-0.558793544769E-08-0.204166446112E+00 0.372529029846E-07
    0.993408172215E+00 0.328031250000E+03 0.128831152556E+01-0.791461562955E-08
   -0.267868296988E-10 0.100000000000E+01 0.139800000000E+04 0.000000000000E+00
    0.200000000000E+01 0.000000000000E+00-0.111758708954E-07 0.436000000000E+03
    0.482418000000E+06 0.400000000000E+01 0.000000000000E+00 0.000000000000E+00
14 06 10 27 16  0  0.0-0.249966979027E-05 0.909494701773E-12 0.000000000000E+00
    0.870000000000E+02-0.584687500000E+02 0.403588239642E-08 0.461642408231E+00
   -0.314600765705E-05 0.285029551014E-02 0.311806797981E-05 0.515369903183E+04
    0.489600000000E+06-0.521540641785E-07-0.218164736168E+00 0.316649675369E-07
    0.987483902588E+00 0.333656250000E+03-0.213691025304E+01-0.806962184643E-08
   -0.646455498895E-10 0.100000000000E+01 0.139800000000E+04 0.000000000000E+00
    0.200000000000E+01 0.000000000000E+00-0.931322574616E-08 0.343000000000E+03
    0.482418000000E+06 0.400000000000E+01 0.000000000000E+00 0.000000000000E+00
15 06 10 27 16  0  0.0 0.189421698451E-04 0.521822585142E-10 0.000000000000E+00
    0.224000000000E+03 0.974687500000E+02 0.435518141079E-08-0.213771276747E+01
    0.497326254845E-05 0.987965252716E-02 0.910833477974E-05 0.515364515495E+04
    0.489600000000E+06-0.219792127609E-06-0.225406196753E+01-0.372529029846E-07
    0.955181000746E+00 0.204500000000E+03 0.271365152426E+01-0.783782647693E-08
   -0.212151694112E-09 0.000000000000E+00 0.139800000000E+04 0.000000000000E+00
    0.200000000000E+01 0.630000000000E+02-0.279396772385E-08 0.480000000000E+03
    0.489120000000E+06 0.400000000000E+01 0.000000000000E+00 0.000000000000E+00
16 06 10 27 16  0  0.0 0.860611908138E-04 0.363797880709E-11 0.000000000000E+00
    0.350000000000E+02-0.234687500000E+02 0.468840957679E-08 0.252348674316E+01
   -0.957399606705E-06 0.345341581851E-02 0.753439962864E-05 0.515352377510E+04
    0.489600000000E+06 0.119209289551E-06 0.187181001539E+01 0.912696123123E-07
    0.962366143373E+00 0.234531250000E+03-0.773854733264E+00-0.788890003292E-08
    0.269654089318E-09 0.100000000000E+01 0.139800000000E+04 0.000000000000E+00
    0.200000000000E+01 0.000000000000E+00-0.977888703346E-08 0.547000000000E+03
    0.482418000000E+06 0.400000000000E+01 0.000000000000E+00 0.000000000000E+00
17 06 10 27 16  0  0.0 0.915685668588E-04-0.125055521494E-11 0.000000000000E+00
    0.176000000000E+03-0.315625000000E+01 0.473769734555E-08 0.156652223608E+01
   -0.143423676491E-06 0.223949260544E-02 0.754930078983E-05 0.515374133110E+04
    0.489600000000E+06 0.558793544769E-07 0.291089237867E+01 0.260770320892E-07
    0.960259936326E+00 0.234250000000E+03 0.305886711585E+01-0.800069077656E-08
   -0.356800589074E-09 0.100000000000E+01 0.139800000000E+04 0.000000000000E+00
    0.200000000000E+01 0.000000000000E+00-0.931322574616E-08 0.176000000000E+03
    0.482418000000E+06 0.400000000000E+01 0.000000000000E+00 0.000000000000E+00
19 06 10 27 16  0  0.0 0.283480621874E-04 0.363797880709E-11 0.000000000000E+00
    0.223000000000E+03-0.218750000000E+00 0.473448292450E-08 0.118214790872E+01
   -0.199303030968E-06 0.351528497413E-02 0.748597085476E-05 0.515366014099E+04
    0.489600000000E+06 0.484287738800E-07 0.296980433842E+01-0.838190317154E-07
    0.958218033307E+00 0.231687500000E+03-0.107384363020E+01-0.795104547867E-08
   -0.351800368183E-09 0.100000000000E+01 0.139800000000E+04 0.000000000000E+00
    0.280000000000E+01 0.000000000000E+00-0.144354999065E-07 0.735000000000E+03
    0.484140000000E+06 0.000000000000E+00 0.000000000000E+00 0.000000000000E+00
